ATLAS CENTAUR R/B       
1 06155U 72065B   26066.05837031  .00001537  00000+0  21241-3 0  9992
2 06155  35.0024 321.1746 0033846 346.7001  13.2805 14.77677625840870
SL-8 R/B                
1 08459U 75112B   26066.13806679  .00000295  00000+0  10544-3 0  9994
2 08459  74.0623  23.6052 0014501 117.9261 242.3364 14.38201647631501
SL-3 R/B                
1 10114U 77057B   26066.12906600  .00015598  00000+0  32787-3 0  9994
2 10114  97.5769 237.9371 0006225 295.9608  64.0999 15.45402398667937
SEASAT 1                
1 10967U 78064A   26066.07508735  .00000243  00000+0  10647-3 0  9992
2 10967 108.0115 120.0133 0002279 285.9434  74.1460 14.46157299506131
SL-14 R/B               
1 11267U 79011B   26066.16596686  .00000647  00000+0  61279-4 0  9997
2 11267  82.5211  98.9663 0017516  68.3206 291.9877 14.91904459528402
SL-8 R/B                
1 11574U 79089B   26066.17920835  .00000315  00000+0  10334-3 0  9998
2 11574  74.0671  95.6917 0017150 268.6111  91.3081 14.42348558435740
SL-14 R/B               
1 11672U 80005B   26066.17732972  .00000669  00000+0  65139-4 0  9996
2 11672  82.5149 309.6194 0015978 166.3983 193.7670 14.90926386476116
SL-8 R/B                
1 12139U 81003B   26066.08666031  .00022353  00000+0  57502-3 0  9994
2 12139  82.9380 292.4312 0262451 187.6793 172.0391 15.10845283314280
SL-3 R/B                
1 12465U 81046B   26066.12384250  .00013802  00000+0  32169-3 0  9999
2 12465  81.2297 292.8257 0019768  31.0770 329.1637 15.41910403438030
SL-3 R/B                
1 12904U 81103B   26066.14145005  .00007037  00000+0  31254-3 0  9993
2 12904  81.1587 216.4210 0012514 295.7154  64.2785 15.21338252972844
SL-3 R/B                
1 13068U 82013B   26066.15058853  .00006237  00000+0  27035-3 0  9994
2 13068  81.1764 163.7457 0022471 185.8669 174.2304 15.21983490403964
SL-3 R/B                
1 13154U 82039B   26066.13885235  .00003275  00000+0  19785-3 0  9990
2 13154  81.1584 218.9026 0029792 332.7779  27.1882 15.10061830381250
